INMARSAT 4-F2 (SOUTHPA*)
1 28899U 05044A   26162.98725299 -.00000248  00000+0  00000+0 0  9990
2 28899   5.0873  43.7029 0002837  34.9086 320.6193  1.00271888 75467
GSAT-8 (GAGAN/PRN 127)  
1 37605U 11022A   26163.20438796  .00000099  00000+0  00000+0 0  9990
2 37605   2.1176  81.8810 0002332 205.1529 102.1537  1.00271870 53160
LUCH 5A (SDCM/PRN 140)  
1 37951U 11074B   26163.51177001 -.00000042  00000+0  00000+0 0  9993
2 37951   8.7416  73.8760 0002184  22.9645 155.2063  1.00269773 53002
SES-5 (EGNOS/PRN 136)   
1 38652U 12036A   26163.15391911  .00000049  00000+0  00000+0 0  9995
2 38652   0.0478 313.5561 0001862 131.8109 235.5100  1.00270253 44407
GSAT-10 (GAGAN/PRN 128) 
1 38779U 12051B   26163.13864300 -.00000149  00000+0  00000+0 0  9999
2 38779   0.0504 263.7219 0007784 184.9482 304.7432  1.00270988 50044
LUCH 5B (SDCM/PRN 125)  
1 38977U 12061A   26163.00837537 -.00000129  00000+0  00000+0 0  9996
2 38977  10.4700  49.9304 0002249 146.8599  50.2887  1.00272976 49553
ASTRA 5B (EGNOS/PRN 123)
1 39617U 14011B   26163.26947940  .00000152  00000+0  00000+0 0  9998
2 39617   0.0502 327.9695 0001843 101.9409 311.1943  1.00271321 44610
LUCH 5V (SDCM/PRN 141)  
1 39727U 14023A   26163.78258718 -.00000259  00000+0  00000+0 0  9997
2 39727   5.1200  69.7880 0001912  42.3347 165.3673  1.00276421 44318
GSAT-15 (GAGAN/PRN 139) 
1 41028U 15065A   26163.71109462 -.00000243  00000+0  00000+0 0  9998
2 41028   0.0818 266.0251 0004007 160.6514 183.8470  1.00269903 38754
EUTELSAT 117 WEST B (W*)
1 41589U 16038B   26163.24165132  .00000004  00000+0  00000+0 0  9999
2 41589   0.0130 152.4141 0000177 305.1611 133.0012  1.00269714 36619
SES-15 (WAAS/PRN 133)   
1 42709U 17026A   26163.27581330  .00000075  00000+0  00000+0 0  9995
2 42709   0.0196 332.6908 0000386  70.2504 187.8018  1.00268507  7386
QZS-2 (QZSS/PRN 194)    
1 42738U 17028A   26160.53939596 -.00000147  00000+0  00000+0 0  9997
2 42738  39.4388 243.2674 0760581 269.1776  81.0235  1.00285994  7547
QZS-3 (QZSS/PRN 199)    
1 42917U 17048A   26163.28993929  .00000000  00000+0  00000+0 0  9990
2 42917   0.0252 184.7315 0002415 266.4892  40.7558  1.00265367 32219
QZS-4 (QZSS/PRN 195)    
1 42965U 17062A   26162.36373251 -.00000318  00000+0  00000+0 0  9990
2 42965  40.1116 343.5575 0745200 271.6390 272.9173  1.00252284 31749
BEIDOU-3 G1 (PRN 130)   
1 43683U 18085A   26163.79550058 -.00000096  00000+0  00000+0 0  9997
2 43683   2.8558  97.5111 0008184 348.6574 261.3042  1.00270772 28011
EUTELSAT 5 WEST B (EGN*)
1 44624U 19067A   26163.26375937 -.00000027  00000+0  00000+0 0  9991
2 44624   0.0627 355.0859 0002955  85.6865 269.7949  1.00271902 24386
BEIDOU-3 G2 (PRN 144)   
1 45344U 20017A   26163.85097779 -.00000129  00000+0  00000+0 0  9991
2 45344   2.8541  47.2727 0002204  32.2882 208.0377  1.00272699 23215
BEIDOU-3 G3 (PRN 143)   
1 45807U 20040A   26163.85704449 -.00000341  00000+0  00000+0 0  9996
2 45807   2.4351  67.4425 0002522 336.8087 276.0267  1.00269061 22026
GALAXY 30 (WAAS/PRN 135)
1 46114U 20056C   26163.24009132  .00000052  00000+0  00000+0 0  9993
2 46114   0.0155 322.5863 0002160 119.8914 139.5351  1.00269848 21244
QZS-1R (QZSS/PRN 196)   
1 49336U 21096A   26162.64809291 -.00000250  00000+0  00000+0 0  9995
2 49336  37.4503  79.6669 0754440 271.6776 276.3022  1.00257351 16959
QZS-6 (QZSS/PRN 200)    
1 62876U 25023A   26163.14011634 -.00000218  00000+0  00000+0 0  9999
2 62876   0.0410  63.4269 0001771  25.7014 312.3104  1.00272177  4893
